RASSVET-3 14            
1 68373U 26061P   26090.65619999  .00065061  32360-6  22411-3 0  9994
2 68373  82.2970  99.7095 0026301  44.0543 316.2818 15.88818575  1262
RASSVET-3 15            
1 68374U 26061Q   26090.65615487  .00065252  33249-6  22471-3 0  9998
2 68374  82.2970  99.7096 0026059  44.1575 316.1770 15.88835235  1268
RASSVET-3 16            
1 68375U 26061R   26090.65551311  .00115755  35198-5  39091-3 0  9998
2 68375  82.2966  99.7084 0025461  44.5811 315.7502 15.89296702  1263
SUPERVIEW NEO-2 OBJECT A
1 68377U 26062A   26092.16964602  .00003792  00000+0  17611-3 0  9999
2 68377  97.4361 100.5539 0006349 239.5784 120.4824 15.20600347  1107
SUPERVIEW NEO-2 OBJECT B
1 68378U 26062B   26090.72162118  .00004270  00000+0  19791-3 0  9995
2 68378  97.4347  99.1253 0008952 250.4427 109.5842 15.20585060   882
CZ-2D R/B               
1 68379U 26062C   26092.25040544  .00014886  00000+0  47587-3 0  9992
2 68379  97.4979 100.6053 0052998  36.3093 324.1725 15.31146855  1129
SHIYAN-33               
1 68405U 26064A   26091.93343048  .00006234  00000+0  26609-3 0  9993
2 68405  97.4660 167.8534 0013482 208.6635 151.3863 15.23180330   888
LPNTSAT-001 (IOD-1)     
1 68408U 26065A   26091.17010600  .00004750  00000+0  23469-3 0  9990
2 68408  97.4137 333.2788 0015408 273.4606  86.4866 15.18233471   574
LPNTSAT-002 (IOD-2)     
1 68409U 26065B   26089.91793646  .00001661  00000+0  84452-4 0  9996
2 68409  97.4122 332.0512 0012511 274.1697  85.8107 15.18186279   362
ELECTRON R/B            
1 68410U 26065C   26088.74355105  .00479178  22642-5  25022-3 0  9993
2 68410  97.3942 331.0573 0228083 205.9229 153.0475 15.83047135   157
ELECTRON KICK STAGE R/B 
1 68411U 26065D   26089.70480097  .00204615  21541-5  32519-3 0  9998
2 68411  97.4169 332.0388 0204510  25.2779 335.8323 15.75328689   370
XINZHENGCHENG-01        
1 68412U 26066A   26090.86061244  .00027820  00000+0  49494-3 0  9990
2 68412  84.9606 276.9718 0206089 144.2419 217.2835 15.29824820   229
